NORAD_CAT_ID,OBJECT_NAME,OBJECT_TYPE,EPOCH,MEAN_MOTION,ECCENTRICITY,INCLINATION,RA_OF_ASC_NODE,ARG_OF_PERICENTER,MEAN_ANOMALY,BSTAR,MEAN_MOTION_DOT,MEAN_MOTION_DDOT,TLE_LINE0,TLE_LINE1,TLE_LINE2,SEMIMAJOR_AXIS,PERIOD,APOGEE,PERIGEE,DECAYED
53925.0,STARLINK-5011,PAYLOAD,2022-12-01 22:00:00,15.573866199999998,0.0001227,53.2162,277.1446,76.3015,126.2191,-0.012518,-0.00853545,0.0,0 STARLINK-5011,1 53925U 22119AR  22335.91667824 -.00853545  00000-0 -12518-1 0  9997,2 53925  53.2162 277.1446 0001227  76.3015 126.2191 15.57386620  1309,6773.361,92.463,396.057,394.395,0.0
53925.0,STARLINK-5011,PAYLOAD,2022-12-02 06:00:00,15.56773368,0.0001226,53.2174,275.5354,71.8953,200.1827,-0.013655,-0.00904804,0.0,0 STARLINK-5011,1 53925U 22119AR  22336.25001157 -.00904804  00000-0 -13655-1 0  9994,2 53925  53.2174 275.5354 0001226  71.8953 200.1827 15.56773368 11174,6775.14,92.499,397.835,396.174,0.0
53925.0,STARLINK-5011,PAYLOAD,2022-12-02 14:00:01,15.56117274,0.0001107999999999,53.2164,273.9258,77.4872,263.3888,-0.013909,-0.00899735,0.0,0 STARLINK-5011,1 53925U 22119AR  22336.58334491 -.00899735  00000-0 -13909-1 0  9998,2 53925  53.2164 273.9258 0001108  77.4872 263.3888 15.56117274  1309,6777.044,92.538,399.66,398.158,0.0
53925.0,STARLINK-5011,PAYLOAD,2022-12-02 22:00:00,15.55467732,0.0001143,53.2162,272.3179,80.7113,328.1756,-0.01426,-0.00900337,0.0,0 STARLINK-5011,1 53925U 22119AR  22336.91667824 -.00900337  00000-0 -14260-1 0  9996,2 53925  53.2162 272.3179 0001143  80.7113 328.1756 15.55467732  1306,6778.93,92.577,401.57,400.02,0.0
53925.0,STARLINK-5011,PAYLOAD,2022-12-03 06:00:00,15.54816806,0.0001234,53.2166,270.7143,79.0615,37.0532,-0.014587,-0.00899166,0.0,0 STARLINK-5011,1 53925U 22119AR  22337.25001157 -.00899166  00000-0 -14587-1 0  9994,2 53925  53.2166 270.7143 0001234  79.0615  37.0532 15.54816806 11333,6780.821999999999,92.615,403.524,401.85,0.0
53925.0,STARLINK-5011,PAYLOAD,2022-12-03 14:00:01,15.54172212,0.000126,53.2169,269.108,80.4036,102.1571,-0.015106,-0.00908373,0.0,0 STARLINK-5011,1 53925U 22119AR  22337.58334491 -.00908373  00000-0 -15106-1 0  9999,2 53925  53.2169 269.1080 0001260  80.4036 102.1571 15.54172212  1309,6782.696999999999,92.654,405.417,403.707,0.0
53925.0,STARLINK-5011,PAYLOAD,2022-12-03 22:00:00,15.5352984,0.0001155,53.2167,267.5054,84.1043,164.1172,-0.01568,-0.00919741,0.0,0 STARLINK-5011,1 53925U 22119AR  22337.91667824 -.00919741  00000-0 -15680-1 0  9993,2 53925  53.2167 267.5054 0001155  84.1043 164.1172 15.53529840  1309,6784.566999999999,92.692,407.215,405.648,0.0
53925.0,STARLINK-5011,PAYLOAD,2022-12-04 06:00:00,15.5287342,0.0001154,53.2167,265.9064,86.3408,226.7648,-0.015915,-0.00912168,0.0,0 STARLINK-5011,1 53925U 22119AR  22338.25001157 -.00912168  00000-0 -15915-1 0  9999,2 53925  53.2167 265.9064 0001154  86.3408 226.7648 15.52873420 11488,6786.478,92.731,409.127,407.56,0.0
53925.0,STARLINK-5011,PAYLOAD,2022-12-04 14:00:01,15.5221139,0.0001074,53.2168,264.3049,70.9981,306.2148,-0.01602,-0.00897762,0.0,0 STARLINK-5011,1 53925U 22119AR  22338.58334491 -.00897762  00000-0 -16020-1 0  9995,2 53925  53.2168 264.3049 0001074  70.9981 306.2148 15.52211390  1302,6788.408,92.771,411.002,409.544,0.0
53925.0,STARLINK-5011,PAYLOAD,2022-12-04 22:00:00,15.5157839,0.0001204,53.2165,262.707,76.9073,3.6151,-0.01688,-0.00935075,0.0,0 STARLINK-5011,1 53925U 22119AR  22338.91667824 -.00935075  00000-0 -16880-1 0  9995,2 53925  53.2165 262.7070 0001204  76.9073   3.6151 15.51578390  1305,6790.254,92.809,412.937,411.302,0.0
53925.0,STARLINK-5011,PAYLOAD,2022-12-05 06:00:00,15.50898946,0.0001223,53.2164,261.1126,83.2877,59.7802,-0.016345,-0.00875779,0.0,0 STARLINK-5011,1 53925U 22119AR  22339.25001157 -.00875779  00000-0 -16345-1 0  9994,2 53925  53.2164 261.1126 0001223  83.2877  59.7802 15.50898946 11647,6792.236999999999,92.849,414.9330000000001,413.271,0.0
53925.0,STARLINK-5011,PAYLOAD,2022-12-05 14:00:01,15.50200849,0.0001153,53.2166,259.516,89.1419,115.7433,-0.0073698999999999,-0.00402428,0.0,0 STARLINK-5011,1 53925U 22119AR  22339.58335648 -.00402428  00000-0 -73699-2 0  9998,2 53925  53.2166 259.5160 0001153  89.1419 115.7433 15.50200849 11694,6794.276,92.891,416.925,415.358,0.0
53925.0,STARLINK-5011,PAYLOAD,2022-12-05 22:00:01,15.49983709,0.0001161,53.2175,257.9223,91.0693,174.9214,-0.0080902,-0.00436448,0.0,0 STARLINK-5011,1 53925U 22119AR  22339.91668981 -.00436448  00000-0 -80902-2 0  9998,2 53925  53.2175 257.9223 0001161  91.0693 174.9214 15.49983709  1303,6794.911,92.904,417.565,415.987,0.0
53925.0,STARLINK-5011,PAYLOAD,2022-12-06 14:00:01,15.49101694,0.0001019,53.217,254.7373,74.0641,313.1594,-0.017359,-0.00872638,0.0,0 STARLINK-5011,1 53925U 22119AR  22340.58335648 -.00872638  00000-0 -17359-1 0  9994,2 53925  53.2170 254.7373 0001019  74.0641 313.1594 15.49101694 11859,6797.49,92.957,420.047,418.662,0.0
53925.0,STARLINK-5011,PAYLOAD,2022-12-06 22:00:00,15.48503673,0.0001152,53.2169,253.1473,89.3841,357.351,-0.019318,-0.00957078,0.0,0 STARLINK-5011,1 53925U 22119AR  22340.91667824 -.00957078  00000-0 -19318-1 0  9994,2 53925  53.2169 253.1473 0001152  89.3841 357.3510 15.48503673  1309,6799.24,92.993,421.888,420.321,0.0
53925.0,STARLINK-5011,PAYLOAD,2022-12-07 06:00:00,15.47631788,0.0001345,53.2168,251.55900000000003,82.4771,63.1877,-0.013136,-0.00635771,0.0,0 STARLINK-5011,1 53925U 22119AR  22341.25001157 -.00635771  00000-0 -13136-1 0  9998,2 53925  53.2168 251.5590 0001345  82.4771  63.1877 15.47631788 11958,6801.793000000002,93.045,424.573,422.74300000000005,0.0
53925.0,STARLINK-5011,PAYLOAD,2022-12-07 14:00:01,15.46738012,0.0001325,53.2182,249.9696,87.3611,116.4812,-0.0065133,-0.00318386,0.0,0 STARLINK-5011,1 53925U 22119AR  22341.58334491 -.00318386  00000-0 -65133-2 0  9999,2 53925  53.2182 249.9696 0001325  87.3611 116.4812 15.46738012 12002,6804.413000000001,93.099,427.18,425.376,0.0
53925.0,STARLINK-5011,PAYLOAD,2022-12-07 22:00:00,15.46052137,0.0001192,53.2171,248.3843,100.5895,160.5218,-0.0054346,-0.00261391,0.0,0 STARLINK-5011,1 53925U 22119AR  22341.91667824 -.00261391  00000-0 -54346-2 0  9992,2 53925  53.2171 248.3843 0001192 100.5895 160.5218 15.46052137 12053,6806.425,93.14,429.102,427.479,0.0
53925.0,STARLINK-5011,PAYLOAD,2022-12-08 00:00:00,15.46283073,0.0001097,53.2171,247.9884,94.2212,270.8685,-0.017357,-0.00797121,0.0,0 STARLINK-5011,1 53925U 22119AR  22342.00001157 -.00797121  00000-0 -17357-1 0  9999,2 53925  53.2171 247.9884 0001097  94.2212 270.8685 15.46283073  1303,6805.748000000001,93.127,428.359,426.866,0.0
53925.0,STARLINK-5011,PAYLOAD,2022-12-08 06:00:00,15.45869344,0.0001106,53.2173,246.8015,95.3899,221.9477,-0.020156,-0.00914502,0.0,0 STARLINK-5011,1 53925U 22119AR  22342.25001157 -.00914502  00000-0 -20156-1 0  9991,2 53925  53.2173 246.8015 0001106  95.3899 221.9477 15.45869344 12109,6806.962,93.151,429.58,428.074,0.0
53925.0,STARLINK-5011,PAYLOAD,2022-12-08 14:00:01,15.45230329,0.0001204,53.217,245.2179,66.8927,306.1307,-0.021022,-0.00931523,0.0,0 STARLINK-5011,1 53925U 22119AR  22342.58334491 -.00931523  00000-0 -21022-1 0  9992,2 53925  53.2170 245.2179 0001204  66.8927 306.1307 15.45230329  1307,6808.8380000000025,93.19,431.523,429.884,0.0
53925.0,STARLINK-5011,PAYLOAD,2022-12-08 17:02:35,15.463706699999998,0.0007866,53.2135,244.6194,273.3118,86.699,-0.0063786,-0.00308793,0.0,0 STARLINK-5011,1 53925U 22119AR  22342.71012785 -.00308793  00000-0 -63786-2 0  9997,2 53925  53.2135 244.6194 0007866 273.3118  86.6990 15.46370670 12186,6805.491,93.121,432.709,422.002,0.0
53925.0,STARLINK-5011,PAYLOAD,2022-12-09 06:00:02,15.43903928,0.00013,53.2164,242.0588,71.6915,50.4428,-0.021126,-0.00897447,0.0,0 STARLINK-5011,1 53925U 22119AR  22343.25002315 -.00897447  00000-0 -21126-1 0  9995,2 53925  53.2164 242.0588 0001300  71.6915  50.4428 15.43903928 12267,6812.738,93.27,435.48800000000006,433.717,0.0
53925.0,STARLINK-5011,PAYLOAD,2022-12-09 14:00:01,15.43264636,0.0001281999999999,53.2173,240.4782,76.0418,99.3687,-0.022029,-0.00914218,0.0,0 STARLINK-5011,1 53925U 22119AR  22343.58334491 -.00914218  00000-0 -22029-1 0  9993,2 53925  53.2173 240.4782 0001282  76.0418  99.3687 15.43264636  1309,6814.619000000002,93.309,437.358,435.61,0.0
53925.0,STARLINK-5011,PAYLOAD,2022-12-09 22:00:00,15.42618891,0.0001267,53.2168,238.9035,99.8623,128.1066,-0.022702,-0.00921154,0.0,0 STARLINK-5011,1 53925U 22119AR  22343.91667824 -.00921154  00000-0 -22702-1 0  9994,2 53925  53.2168 238.9035 0001267  99.8623 128.1066 15.42618891 12365,6816.52,93.348,439.249,437.522,0.0
53925.0,STARLINK-5011,PAYLOAD,2022-12-10 14:00:01,15.41309582,0.0001173,53.2173,235.7534,109.4288,221.3219,-0.023435,-0.00910791,0.0,0 STARLINK-5011,1 53925U 22119AR  22344.58334491 -.00910791  00000-0 -23435-1 0  9998,2 53925  53.2173 235.7534 0001173 109.4288 221.3219 15.41309582  1302,6820.38,93.427,443.045,441.445,0.0
53925.0,STARLINK-5011,PAYLOAD,2022-12-10 22:00:00,15.40661507,0.0001157,53.2174,234.1831,74.6251,306.3388,-0.024072,-0.00915121,0.0,0 STARLINK-5011,1 53925U 22119AR  22344.91667824 -.00915121  00000-0 -24072-1 0  9994,2 53925  53.2174 234.1831 0001157  74.6251 306.3388 15.40661507 12525,6822.293000000002,93.466,444.947,443.36800000000005,0.0
53925.0,STARLINK-5011,PAYLOAD,2022-12-11 00:00:00,15.40499221,0.0001317,53.2173,233.7908,72.565,50.83,-0.024229,-0.00916071,0.0,0 STARLINK-5011,1 53925U 22119AR  22345.00001157 -.00916071  00000-0 -24229-1 0  9995,2 53925  53.2173 233.7908 0001317  72.5650  50.8300 15.40499221  1303,6822.772,93.476,445.535,443.73800000000006,0.0
53925.0,STARLINK-5011,PAYLOAD,2022-12-11 14:00:01,15.39359098,0.0001221,53.2173,231.0426,99.0302,20.0186,-0.025136,-0.0091514,0.0,0 STARLINK-5011,1 53925U 22119AR  22345.58334491 -.00915140  00000-0 -25136-1 0  9992,2 53925  53.2173 231.0426 0001221  99.0302  20.0186 15.39359098  1307,6826.14,93.545,448.839,447.172,0.0
